{"type": "FeatureCollection", "features": [ {"type": "Feature", "properties": {"norad_id": 30134, "name": "FENGYUN 1C DEB", "group": "fengyun-1c-debris", "lat": -52.706678193200894, "lon": 173.3277747521398, "alt_km": 845.6553202190353, "timestamp": "2025-12-11T20:41:15.355105+00:00", "meta": {"OBJECT_NAME": "FENGYUN 1C DEB", "OBJECT_ID": "1999-025SP", "EPOCH": "2025-12-11T01:01:47.194176", "MEAN_MOTION": 14.13342996, "ECCENTRICITY": 0.00189293, "INCLINATION": 98.6939, "RA_OF_ASC_NODE": 4.1217, "ARG_OF_PERICENTER": 188.1776, "MEAN_ANOMALY": 200.0229, "EPHEMERIS_TYPE": 0, "CLASSIFICATION_TYPE": "U", "NORAD_CAT_ID": 30134, "ELEMENT_SET_NO": 999, "REV_AT_EPOCH": 97222, "BSTAR": 0.00065301552, "MEAN_MOTION_DOT": 1.185e-05, "MEAN_MOTION_DDOT": 0}, "tle": {"line1": "1 30134U 99025SP  25345.04290734  .00001185  00000+0  65302-3 0  9997", "line2": "2 30134  98.6939   4.1217 0018929 188.1776 200.0229 14.13342996972228"}}, "geometry": {"type": "Point", "coordinates": [173.3277747521398, -52.706678193200894]}}, {"type": "Feature", "properties": {"norad_id": 30136, "name": "FENGYUN 1C DEB", "group": "fengyun-1c-debris", "lat": -57.27590289568062, "lon": -107.66292003773282, "alt_km": 977.160396549415, "timestamp": "2025-12-11T20:41:15.355116+00:00", "meta": {"OBJECT_NAME": "FENGYUN 1C DEB", "OBJECT_ID": "1999-025SR", "EPOCH": "2025-12-11T04:28:48.619776", "MEAN_MOTION": 13.95322099, "ECCENTRICITY": 0.01294472, "INCLINATION": 98.5568, "RA_OF_ASC_NODE": 238.1596, "ARG_OF_PERICENTER": 73.7604, "MEAN_ANOMALY": 78.8401, "EPHEMERIS_TYPE": 0, "CLASSIFICATION_TYPE": "U", "NORAD_CAT_ID": 30136, "ELEMENT_SET_NO": 999, "REV_AT_EPOCH": 96069, "BSTAR": 0.0005747756, "MEAN_MOTION_DOT": 7.96e-06, "MEAN_MOTION_DDOT": 0}, "tle": {"line1": "1 30136U 99025SR  25345.18667384  .00000796  00000+0  57478-3 0  9995", "line2": "2 30136  98.5568 238.1596 0129447  73.7604  78.8401 13.95322099960695"}}, "geometry": {"type": "Point", "coordinates": [-107.66292003773282, -57.27590289568062]}}, {"type": "Feature", "properties": {"norad_id": 30138, "name": "FENGYUN 1C DEB", "group": "fengyun-1c-debris", "lat": -45.22604305731466, "lon": 48.07294531315709, "alt_km": 846.5971614976852, "timestamp": "2025-12-11T20:41:15.355126+00:00", "meta": {"OBJECT_NAME": "FENGYUN 1C DEB", "OBJECT_ID": "1999-025ST", "EPOCH": "2025-12-11T14:54:18.313920", "MEAN_MOTION": 14.20021578, "ECCENTRICITY": 0.00204436, "INCLINATION": 98.7591, "RA_OF_ASC_NODE": 38.8947, "ARG_OF_PERICENTER": 141.3611, "MEAN_ANOMALY": 21.7864, "EPHEMERIS_TYPE": 0, "CLASSIFICATION_TYPE": "U", "NORAD_CAT_ID": 30138, "ELEMENT_SET_NO": 999, "REV_AT_EPOCH": 97385, "BSTAR": 0.0012354421, "MEAN_MOTION_DOT": 2.591e-05, "MEAN_MOTION_DDOT": 0}, "tle": {"line1": "1 30138U 99025ST  25345.62104530  .00002591  00000+0  12354-2 0  9993", "line2": "2 30138  98.7591  38.8947 0020443 141.3611  21.7864 14.20021578973855"}}, "geometry": {"type": "Point", "coordinates": [48.07294531315709, -45.22604305731466]}}, {"type": "Feature", "properties": {"norad_id": 30139, "name": "FENGYUN 1C DEB", "group": "fengyun-1c-debris", "lat": -22.99522842056339, "lon": 5.937751755969807, "alt_km": 885.0598608683522, "timestamp": "2025-12-11T20:41:15.355137+00:00", "meta": {"OBJECT_NAME": "FENGYUN 1C DEB", "OBJECT_ID": "1999-025SU", "EPOCH": "2025-12-08T13:16:40.867392", "MEAN_MOTION": 14.03631846, "ECCENTRICITY": 0.0131198, "INCLINATION": 98.3646, "RA_OF_ASC_NODE": 186.472, "ARG_OF_PERICENTER": 302.3773, "MEAN_ANOMALY": 112.2394, "EPHEMERIS_TYPE": 0, "CLASSIFICATION_TYPE": "U", "NORAD_CAT_ID": 30139, "ELEMENT_SET_NO": 999, "REV_AT_EPOCH": 96191, "BSTAR": 0.0019706, "MEAN_MOTION_DOT": 3.301e-05, "MEAN_MOTION_DDOT": 0}, "tle": {"line1": "1 30139U 99025SU  25342.55325078  .00003301  00000+0  19706-2 0  9993", "line2": "2 30139  98.3646 186.4720 0131198 302.3773 112.2394 14.03631846961914"}}, "geometry": {"type": "Point", "coordinates": [5.937751755969807, -22.99522842056339]}}, {"type": "Feature", "properties": {"norad_id": 30140, "name": "FENGYUN 1C DEB", "group": "fengyun-1c-debris", "lat": 52.24686149622701, "lon": -119.69074733890456, "alt_km": 847.0235825511663, "timestamp": "2025-12-11T20:41:15.355147+00:00", "meta": {"OBJECT_NAME": "FENGYUN 1C DEB", "OBJECT_ID": "1999-025SV", "EPOCH": "2025-12-11T15:44:26.270304", "MEAN_MOTION": 14.20738546, "ECCENTRICITY": 0.00405724, "INCLINATION": 98.8266, "RA_OF_ASC_NODE": 48.5281, "ARG_OF_PERICENTER": 312.8904, "MEAN_ANOMALY": 200.1959, "EPHEMERIS_TYPE": 0, "CLASSIFICATION_TYPE": "U", "NORAD_CAT_ID": 30140, "ELEMENT_SET_NO": 999, "REV_AT_EPOCH": 97128, "BSTAR": 0.0019510982, "MEAN_MOTION_DOT": 4.2e-05, "MEAN_MOTION_DDOT": 0}, "tle": {"line1": "1 30140U 99025SV  25345.65585961  .00004200  00000+0  19511-2 0  9991", "line2": "2 30140  98.8266  48.5281 0040572 312.8904 200.1959 14.20738546971285"}}, "geometry": {"type": "Point", "coordinates": [-119.69074733890456, 52.24686149622701]}}, {"type": "Feature", "properties": {"norad_id": 30141, "name": "FENGYUN 1C DEB", "group": "fengyun-1c-debris", "lat": 79.90234918570692, "lon": -155.47300454289152, "alt_km": 703.883136141023, "timestamp": "2025-12-11T20:41:15.355157+00:00", "meta": {"OBJECT_NAME": "FENGYUN 1C DEB", "OBJECT_ID": "1999-025SW", "EPOCH": "2025-12-11T00:26:38.982336", "MEAN_MOTION": 14.51503608, "ECCENTRICITY": 0.00194043, "INCLINATION": 99.0137, "RA_OF_ASC_NODE": 266.6649, "ARG_OF_PERICENTER": 40.6325, "MEAN_ANOMALY": 319.6312, "EPHEMERIS_TYPE": 0, "CLASSIFICATION_TYPE": "U", "NORAD_CAT_ID": 30141, "ELEMENT_SET_NO": 999, "REV_AT_EPOCH": 98219, "BSTAR": 0.0042268672, "MEAN_MOTION_DOT": 0.00016928, "MEAN_MOTION_DDOT": 0}, "tle": {"line1": "1 30141U 99025SW  25345.01850674  .00016928  00000+0  42269-2 0  9994", "line2": "2 30141  99.0137 266.6649 0019404  40.6325 319.6312 14.51503608982194"}}, "geometry": {"type": "Point", "coordinates": [-155.47300454289152, 79.90234918570692]}}, {"type": "Feature", "properties": {"norad_id": 30142, "name": "FENGYUN 1C DEB", "group": "fengyun-1c-debris", "lat": 65.7121659550572, "lon": 40.75123816687969, "alt_km": 883.6868780206469, "timestamp": "2025-12-11T20:41:15.355167+00:00", "meta": {"OBJECT_NAME": "FENGYUN 1C DEB", "OBJECT_ID": "1999-025SX", "EPOCH": "2025-12-11T11:51:27.256608", "MEAN_MOTION": 14.10470019, "ECCENTRICITY": 0.01011741, "INCLINATION": 99.1281, "RA_OF_ASC_NODE": 61.2501, "ARG_OF_PERICENTER": 311.6936, "MEAN_ANOMALY": 47.561, "EPHEMERIS_TYPE": 0, "CLASSIFICATION_TYPE": "U", "NORAD_CAT_ID": 30142, "ELEMENT_SET_NO": 999, "REV_AT_EPOCH": 96281, "BSTAR": 0.002753264, "MEAN_MOTION_DOT": 5.095e-05, "MEAN_MOTION_DDOT": 0}, "tle": {"line1": "1 30142U 99025SX  25345.49406547  .00005095  00000+0  27533-2 0  9993", "line2": "2 30142  99.1281  61.2501 0101174 311.6936  47.5610 14.10470019962816"}}, "geometry": {"type": "Point", "coordinates": [40.75123816687969, 65.7121659550572]}}, {"type": "Feature", "properties": {"norad_id": 30143, "name": "FENGYUN 1C DEB", "group": "fengyun-1c-debris", "lat": 22.872229897929444, "lon": 165.46772842549234, "alt_km": 883.5188206168768, "timestamp": "2025-12-11T20:41:15.355177+00:00", "meta": {"OBJECT_NAME": "FENGYUN 1C DEB", "OBJECT_ID": "1999-025SY", "EPOCH": "2025-12-11T10:36:26.335008", "MEAN_MOTION": 14.02576218, "ECCENTRICITY": 0.01038333, "INCLINATION": 98.7348, "RA_OF_ASC_NODE": 168.7834, "ARG_OF_PERICENTER": 294.511, "MEAN_ANOMALY": 127.9768, "EPHEMERIS_TYPE": 0, "CLASSIFICATION_TYPE": "U", "NORAD_CAT_ID": 30143, "ELEMENT_SET_NO": 999, "REV_AT_EPOCH": 96201, "BSTAR": 0.0019434112, "MEAN_MOTION_DOT": 3.098e-05, "MEAN_MOTION_DDOT": 0}, "tle": {"line1": "1 30143U 99025SY  25345.44197147  .00003098  00000+0  19434-2 0  9994", "line2": "2 30143  98.7348 168.7834 0103833 294.5110 127.9768 14.02576218962013"}}, "geometry": {"type": "Point", "coordinates": [165.46772842549234, 22.872229897929444]}}, {"type": "Feature", "properties": {"norad_id": 30144, "name": "FENGYUN 1C DEB", "group": "fengyun-1c-debris", "lat": 72.33554604887216, "lon": -171.45096599914586, "alt_km": 1006.2093698316321, "timestamp": "2025-12-11T20:41:15.355187+00:00", "meta": {"OBJECT_NAME": "FENGYUN 1C DEB", "OBJECT_ID": "1999-025SZ", "EPOCH": "2025-12-11T06:26:16.099296", "MEAN_MOTION": 13.91815451, "ECCENTRICITY": 0.01258046, "INCLINATION": 99.01, "RA_OF_ASC_NODE": 338.0899, "ARG_OF_PERICENTER": 294.8671, "MEAN_ANOMALY": 76.8105, "EPHEMERIS_TYPE": 0, "CLASSIFICATION_TYPE": "U", "NORAD_CAT_ID": 30144, "ELEMENT_SET_NO": 999, "REV_AT_EPOCH": 95820, "BSTAR": 0.00092688521, "MEAN_MOTION_DOT": 1.214e-05, "MEAN_MOTION_DDOT": 0}, "tle": {"line1": "1 30144U 99025SZ  25345.26824189  .00001214  00000+0  92689-3 0  9990", "line2": "2 30144  99.0100 338.0899 0125804 294.8671  76.8105 13.91815451958209"}}, "geometry": {"type": "Point", "coordinates": [-171.45096599914586, 72.33554604887216]}}, {"type": "Feature", "properties": {"norad_id": 30145, "name": "FENGYUN 1C DEB", "group": "fengyun-1c-debris", "lat": 68.70937559551622, "lon": -59.81568371967042, "alt_km": 789.3524103637665, "timestamp": "2025-12-11T20:41:15.355197+00:00", "meta": {"OBJECT_NAME": "FENGYUN 1C DEB", "OBJECT_ID": "1999-025TA", "EPOCH": "2025-12-11T13:41:59.282592", "MEAN_MOTION": 14.14005865, "ECCENTRICITY": 0.00917739, "INCLINATION": 99.2692, "RA_OF_ASC_NODE": 95.1069, "ARG_OF_PERICENTER": 151.9563, "MEAN_ANOMALY": 276.6525, "EPHEMERIS_TYPE": 0, "CLASSIFICATION_TYPE": "U", "NORAD_CAT_ID": 30145, "ELEMENT_SET_NO": 999, "REV_AT_EPOCH": 96179, "BSTAR": 0.0045052647, "MEAN_MOTION_DOT": 8.876e-05, "MEAN_MOTION_DDOT": 0}, "tle": {"line1": "1 30145U 99025TA  25345.57082503  .00008876  00000+0  45053-2 0  9994", "line2": "2 30145  99.2692  95.1069 0091773 151.9563 276.6525 14.14005865961798"}}, "geometry": {"type": "Point", "coordinates": [-59.81568371967042, 68.70937559551622]}}]}